GLOBALSTAR M001         
1 25162U 98008A   25358.80532301 -.00000059  00000+0  28900-3 0  9992
2 25162  52.0015 138.4070 0000430 328.8505 198.4023 12.38224431267329
GLOBALSTAR M004         
1 25163U 98008B   25358.80447553 -.00000096  00000+0  44313-4 0  9995
2 25163  51.9973 192.6183 0003323  14.2566 358.8211 12.63411370285784
GLOBALSTAR M002         
1 25164U 98008C   25357.83538957 -.00000102  00000+0 -49738-3 0  9991
2 25164  51.9999 124.6898 0002484 124.0983 236.0073 11.61514506206105
GLOBALSTAR M003         
1 25165U 98008D   25358.72419061 -.00000210  00000+0 -12890-2 0  9993
2 25165  51.9922   0.7894 0007970 318.3393 213.0061 12.12040112256325
GLOBALSTAR M014         
1 25306U 98023A   25358.54499734 -.00000074  00000+0  65973-4 0  9991
2 25306  51.9860  42.1321 0000606   1.7024 167.0114 11.65483593213366
GLOBALSTAR M006         
1 25307U 98023B   25358.71673005 -.00000111  00000+0 -71380-3 0  9997
2 25307  51.9937 101.2918 0003947 101.1663  68.0660 11.58178187238901
GLOBALSTAR M015         
1 25308U 98023C   25358.84092866 -.00000070  00000+0  85886-4 0  9992
2 25308  51.9785 208.1954 0013713  57.6436 315.4985 11.48863008215990
GLOBALSTAR M008         
1 25309U 98023D   25358.77206736 -.00000072  00000+0  19237-3 0  9996
2 25309  51.9992   5.4954 0002583 212.9807 318.0765 12.36077453261412
